TDRS 3                  
1 19548U 88091B   24350.87209521 -.00000299  00000+0  00000+0 0  9990
2 19548  13.0224 344.6681 0041083 337.6109  27.8777  1.00272099119872
HST                     
1 20580U 90037B   24350.91440700  .00008939  00000+0  37412-3 0  9991
2 20580  28.4664 204.1584 0001758 227.2211 132.8235 15.21785354704702
TDRS 5                  
1 21639U 91054B   24350.44056255 -.00000303  00000+0  00000+0 0  9990
2 21639  14.1386 357.7878 0006975 266.4925 276.6923  1.00271484122201
TDRS 6                  
1 22314U 93003B   24350.87270336 -.00000297  00000+0  00000+0 0  9994
2 22314  14.1688   1.0859 0008648 191.2058 161.0712  1.00273261116881
TDRS 7                  
1 23613U 95035B   24351.04151280 -.00000203  00000+0  00000+0 0  9997
2 23613  13.6056 351.9618 0021250  70.8832 122.0614  1.00276362107651
ISS (ZARYA)             
1 25544U 98067A   24350.89279255  .00017031  00000+0  29887-3 0  9999
2 25544  51.6375 135.1316 0007555 345.0591  15.0174 15.50624323486735
TERRA                   
1 25994U 99068A   24351.17086587  .00001069  00000+0  23055-3 0  9991
2 25994  98.0260  49.1445 0003121 133.1994 248.8739 14.60313756329720
TDRS 8                  
1 26388U 00034A   24349.34765455  .00000095  00000+0  00000+0 0  9997
2 26388  11.8171  35.7899 0007182 226.5872 138.6252  1.00275924 89665
TIMED                   
1 26998U 01055B   24350.81524772  .00003332  00000+0  32482-3 0  9997
2 26998  74.0706 257.3629 0002847 250.9464 109.1411 14.92896831248917
AQUA                    
1 27424U 02022A   24351.15000703  .00002313  00000+0  48642-3 0  9991
2 27424  98.3550 301.5549 0000473  88.6155  37.6010 14.60513942203260
TDRS 10                 
1 27566U 02055A   24349.84718716  .00000087  00000+0  00000+0 0  9995
2 27566   9.9081  44.0422 0005320 278.1800 255.5978  1.00269998 80718
SORCE                   
1 27651U 03004A   24350.81281455  .00007215  00000+0  60839-3 0  9999
2 27651  39.9906 138.6995 0019445  78.4365 281.8609 14.98100978189465
AURA                    
1 28376U 04026A   24351.16082926  .00002297  00000+0  49088-3 0  9998
2 28376  98.2735 295.0514 0000715 119.4345 240.6926 14.59771451 86252
SWIFT                   
1 28485U 04047A   24351.13648161  .00026223  00000+0  90106-3 0  9990
2 28485  20.5574 310.6277 0006808 128.2640 231.8411 15.28177858102109
THEMIS A                
1 30580U 07004A   24350.48955120 -.00000260  00000+0  00000+0 0  9992
2 30580   7.5202 249.3284 8417638 355.9619   0.5352  0.87838116 36456
THEMIS D                
1 30797U 07004D   24350.95133078 -.00000328  00000+0  00000+0 0  9999
2 30797   2.9202 249.5787 8403850 359.9591 135.5689  0.87838884 60674
THEMIS E                
1 30798U 07004E   24350.66586685 -.00000332  00000+0  00000+0 0  9999
2 30798   5.1954 274.4461 8392256 336.0131  58.6071  0.87836206 61096
FGRST (GLAST)           
1 33053U 08029A   24350.80430813  .00006162  00000+0  26880-3 0  9995
2 33053  25.5840  39.8273 0009468 359.0946   0.9573 15.19289579912209
TDRS 11                 
1 39070U 13004A   24350.84716049  .00000086  00000+0  00000+0 0  9992
2 39070   2.8625  17.8745 0002205  18.3836 179.4949  1.00278236 41191
TDRS 12                 
1 39504U 14004A   24351.17618865 -.00000265  00000+0  00000+0 0  9999
2 39504   3.5929   7.7948 0005454 247.6125 212.4863  1.00271921 39956
GPM-CORE                
1 39574U 14009C   24351.11509020  .00014874  00000+0  31559-3 0  9994
2 39574  64.9812 343.8690 0011580 269.3495  90.6319 15.45192423613178
MMS 1                   
1 40482U 15011A   24351.25001157 -.00001021  00000+0  00000+0 0  9995
2 40482  58.0385   0.9317 8925453 154.7544  55.5003  0.28527655 15896
MMS 2                   
1 40483U 15011B   24351.25001157 -.00001021  00000+0  00000+0 0  9996
2 40483  58.0384   0.9320 8925426 154.7533  53.9937  0.28528156 15871
MMS 3                   
1 40484U 15011C   24351.25001157 -.00001021  00000+0  00000+0 0  9997
2 40484  58.0402   0.9304 8925367 154.7541  54.2372  0.28528381 15875
MMS 4                   
1 40485U 15011D   24351.25001157 -.00001021  00000+0  00000+0 0  9998
2 40485  58.0385   0.9331 8924943 154.7492  44.3613  0.28534666 15871
TDRS 13                 
1 42915U 17047A   24350.59364300 -.00000091  00000+0  00000+0 0  9993
2 42915   3.5211 348.7842 0010333 124.3097 173.9844  1.00271120 26847
NOAA 20 (JPSS-1)        
1 43013U 17073A   24351.12048654  .00000197  00000+0  11436-3 0  9998
2 43013  98.7253 286.1163 0002173  71.6274 288.5138 14.19519525366714
